{
    "links": {
        "self": "http://www.neowsapp.com/rest/v1/neo/3717072?api_key=iIulBulltgU6a56xZRHN4H3l9WmuAYTsLGpBGhQ2"
    },
    "id": "3717072",
    "neo_reference_id": "3717072",
    "name": "(2015 FV344)",
    "designation": "2015 FV344",
    "nasa_jpl_url": "http://ssd.jpl.nasa.gov/sbdb.cgi?sstr=3717072",
    "absolute_magnitude_h": 25.2,
    "estimated_diameter": {
        "kilometers": {
            "estimated_diameter_min": 0.0242412481,
            "estimated_diameter_max": 0.0542050786
        },
        "meters": {
            "estimated_diameter_min": 24.2412481101,
            "estimated_diameter_max": 54.2050786336
        },
        "miles": {
            "estimated_diameter_min": 0.0150628086,
            "estimated_diameter_max": 0.0336814639
        },
        "feet": {
            "estimated_diameter_min": 79.5316564495,
            "estimated_diameter_max": 177.8381901842
        }
    },
    "is_potentially_hazardous_asteroid": false,
    "close_approach_data": [
        {
            "close_approach_date": "2015-03-21",
            "close_approach_date_full": "2015-Mar-21 01:46",
            "epoch_date_close_approach": 1426902360000,
            "relative_velocity": {
                "kilometers_per_second": "15.1048501373",
                "kilometers_per_hour": "54377.4604941364",
                "miles_per_hour": "33788.0392720371"
            },
            "miss_distance": {
                "astronomical": "0.0167969222",
                "lunar": "6.5340027358",
                "kilometers": "2512783.783675714",
                "miles": "1561371.4414202932"
            },
            "orbiting_body": "Earth"
        }
    ],
    "orbital_data": {
        "orbit_id": "3",
        "orbit_determination_date": "2017-04-06 08:34:36",
        "first_observation_date": "2015-03-18",
        "last_observation_date": "2015-03-19",
        "data_arc_in_days": 1,
        "observations_used": 6,
        "orbit_uncertainty": "9",
        "minimum_orbit_intersection": ".00557318",
        "jupiter_tisserand_invariant": "4.352",
        "epoch_osculation": "2457099.5",
        "eccentricity": ".5159179637817662",
        "semi_major_axis": "1.512788589028692",
        "inclination": "8.970611465123325",
        "ascending_node_longitude": "176.9534288747685",
        "orbital_period": "679.6194302604296",
        "perihelion_distance": ".7323137805447179",
        "perihelion_argument": "79.30319184173368",
        "aphelion_distance": "2.293263397512666",
        "perihelion_time": "2457152.438617846353",
        "mean_anomaly": "331.9579788685793",
        "mean_motion": ".5297082219412831",
        "equinox": "J2000",
        "orbit_class": {
            "orbit_class_type": "APO",
            "orbit_class_description": "Near-Earth asteroid orbits which cross the Earth’s orbit similar to that of 1862 Apollo",
            "orbit_class_range": "a (semi-major axis) > 1.0 AU; q (perihelion) < 1.017 AU"
        }
    },
    "is_sentry_object": false
}